ONEWEB-0205             
1 48226U 21031S   25323.73773172 -.00000076  00000+0 -23946-3 0  9992
2 48226  87.8989 331.4227 0001713  85.9352 274.1974 13.14501718220750
ONEWEB-0206             
1 48227U 21031T   25323.78689868  .00000146  00000+0  36034-3 0  9994
2 48227  87.8998 331.4013 0002026  96.6475 263.4886 13.14501777220711
ONEWEB-0182             
1 48228U 21031U   25323.78213741  .00000108  00000+0  25728-3 0  9994
2 48228  87.8974 331.4353 0001626  93.4194 266.7122 13.14501003220925
ONEWEB-0186             
1 48229U 21031V   25323.48877057  .00000131  00000+0  31951-3 0  9999
2 48229  87.8997 331.4667 0001804  88.3478 271.7859 13.14502059220830
ONEWEB-0181             
1 48230U 21031W   25323.77103153  .00000071  00000+0  15810-3 0  9991
2 48230  87.8975 331.4686 0001869  85.8529 274.2815 13.14501656220729
ONEWEB-0188             
1 48231U 21031X   25323.73298235 -.00000055  00000+0 -18250-3 0  9999
2 48231  87.8981 331.4723 0001719  90.1814 269.9512 13.14502083220628
ONEWEB-0220             
1 48232U 21031Y   25323.77262981  .00000226  00000+0  57410-3 0  9992
2 48232  87.8996 331.4098 0001642  85.3829 274.7488 13.14502521220899
ONEWEB-0165             
1 48233U 21031Z   25323.95341161  .00000154  00000+0  38186-3 0  9990
2 48233  87.8976 331.4036 0002061  83.1745 276.9620 13.14501730220870
